NON_COLLIDING_SAT
1 99992U 21000B   25116.91376344  .00071538  00000+0  12550-2 0  9999
2 99992  98.0000 120.0000 0000001   0.0000 180.0000 14.00000000000000